#dP2023  8 30  0  0  0.00000000      96 __u+U ITR00 EXT  IAC
## 2277 259200.00000000   900.00000000 60186 0.0000000000000
+  119   C06C07C08C09C10C11C12C13C14C16C19C20C21C22C23C24C25
+        C26C27C28C29C30C32C33C34C35C36C37C38C39C40C41C42C43
+        C44C45C46E02E03E04E05E07E08E09E10E11E12E13E14E15E18
+        E19E21E24E25E26E27E30E31E33E34E36G01G02G03G04G05G06
+        G07G08G09G10G11G12G13G14G15G16G17G18G19G20G21G22G23
+        G24G25G26G27G28G29G30G31G32J02J03J04R01R02R03R04R05
+        R07R08R09R11R12R13R14R15R16R17R18R19R20R21R22R24R25
++         9 10 10  9  8 13 13  8  8 10  8 10  7  7 10  7  6
++         7  8  8  8  9  9  8  7  7  9  8 10 10  9  8  9  9
++         8  8  8  8  7  7  8  8  7  6  8  8  9  7  7  8  8
++         7  7  7  7  7  7  7  7  8  8  7  7  7  8  9  7  8
++         6  7  8  9  7  8  8  6  9  7  7  8  7  7  7  6  7
++         7  7  8  8  8  7  6  7  8  8 15  9  8  8  8  8  7
++         8  8  7  9  7  8  7  8  8  9  7  9 10  9  7  9  9
%c M  cc GPS ccc cccc cccc cccc cccc ccccc ccccc ccccc ccccc
%c cc cc ccc ccc cccc cccc cccc cccc ccccc ccccc ccccc ccccc
%f  0.0000000  0.000000000  0.00000000000  0.000000000000000
%f  0.0000000  0.000000000  0.00000000000  0.000000000000000
%i    0    0    0    0      0      0      0      0         0
%i    0    0    0    0      0      0      0      0         0
/* IAC                                ULTRA-RAPID PREDICTION
/* S/V CLOCKS ARE ALIGNED TO GNSS TIME                      
/* G:C1WC2W R:C1PC2P E:C1XC5X C:C2IC6I J:C1CC2S             
/* PCV:IGS20_2274 OL/AL:FES2004  NONE     YN ORB:CoN CLK:CoN
*  2023 08 30  0  0  0.00000000
PC06  -8661.330366  23136.772676 -34163.511302    940.192672
PC07 -16492.759023  37269.084357  10447.887793     -7.114995
PC08   -807.200355  36366.822031  21483.209646    368.699111
PC09    432.013630  25011.582175 -33445.086439    230.790053
PC10  -9820.611039  37350.665060  16586.279662   -161.448765
PC11 -11766.928573  13811.852153  21260.357021    805.203287
PC12 -26319.930851   4972.067545   7832.600449    913.818690
PC13   3696.141775  39116.864552  15810.879027    342.998330
PC14 -12312.367836  24928.543813  -2006.119376    314.426694
PC16 -12590.413291  21216.539665 -33972.912124    -57.046458
PC19   5454.240514 -25081.834112  10992.195309   -970.943546
PC20  16540.465188 -21783.073664  -5613.624356    323.780650
PC21 -18544.312831   4910.598575  20264.170176   -958.870500
PC22  -9344.668777 -14142.178417  22161.858104   -329.783134
PC23  16269.597542  22407.861560   3484.143360   -888.314782
PC24 -11666.949452  11966.654448 -22355.893597    337.334651
PC25   4557.123305  24437.441597 -12707.147054    200.089140
PC26 -19726.086642  -5932.695253 -18822.859260   -170.310983
PC27  27899.214972    231.252745    465.959007    191.684493
PC28  20559.322931  10742.892136  15524.492566    143.582194
PC29    299.648839 -16012.184154 -22858.789939    167.584767
PC30  20557.538420 -11397.534799 -15037.974485     -4.162390
PC32  18495.003940  -4967.595165 -20295.532406   -530.117704
PC33  -5364.436291  25126.436156 -10878.403645   -950.781032
PC34 -19440.012366  12032.569054  15998.882500    248.107463
PC35 -20809.776577 -10130.018011 -15625.200793    557.412850
PC36  -3291.282337 -24283.602697  13369.750158   -251.495133
PC37  19753.902178   7335.460474  18324.346195   -816.591711
PC38  -6988.452796  31909.138842  26776.227986    101.421427
PC39 -18248.209236  19723.378025 -32509.067355     -4.545768
PC40 -24072.794295  33303.691737   8799.229812    -34.648370
PC41   8914.033378  14745.998584 -21904.239690   -883.067503
PC42 -17095.000813  20895.006821   7050.016774   -562.461921
PC43  -1361.701401  16127.888283  22723.861628     37.470087
PC44 -27902.893730    661.293653   -694.967817    215.478734
PC45 -16454.394241 -22164.939793  -3997.494335    -19.718105
PC46  10709.472288 -13052.255568  22216.553161    -80.316549
PE02   7073.748738 -27321.664558   8906.907250     58.822516
PE03  14474.476764 -20421.465771  15804.007784    -50.841347
PE04   5958.000385  16021.166237 -24163.113599   -200.520255
PE05  26564.264098 -12937.117795  -1805.282080     13.591372
PE07 -22899.955492  -2419.334074  18594.713367    -71.031664
PE08  -5423.373379 -16122.495850  24222.321377   -138.129173
PE09  22776.847595   2404.256682 -18760.601983   -138.060440
PE10  22617.802002  18186.316727   5848.822969   -559.852813
PE11  26354.719111  12639.068051  -4681.072119   2828.509452
PE12  15656.486507  20561.084882  14419.161554   -677.389053
PE13 -26249.957632 -13091.199262   3951.695879    -19.534823
PE14 -16439.891407 -11499.808787 -20464.966038    325.530077
PE15 -15355.150005 -20532.545558 -14788.466931    -49.087955
PE18  27273.862525  -2512.206309   9958.311397    471.054350
PE19 -16841.083831  19965.464744 -13924.581922  -1742.643679
PE21 -15517.422298  12358.424276 -21962.968113   -549.588756
PE24  15299.484072  11299.072074  22678.379705   -293.159060
PE25  15617.430480 -11963.835601  22126.590394     -1.024745
PE26 -21244.063392   2592.325722  20441.910601    207.322015
PE27 -15456.623646 -10556.166242 -22920.581943   -137.016305
PE30  -5957.224564 -27218.513820  -9979.760551   -458.201242
PE31   6307.370548  26995.813756  10388.108514     -3.851153
PE33  -5009.774418  15527.404546  24695.958661     -1.043658
PE34   4354.426807 -15864.713566 -24614.855663    -64.245895
PE36  21633.700066  -1905.059716 -20116.052440   -108.451248
PG01 -22064.666000 -15116.235404   -438.665904    166.915845
PG02 -20049.519536 -15966.839634  -6783.308996   -559.926512
PG03 -12423.572487 -12980.490186  19451.871711   -162.513719
PG04 -19752.277039  -4016.517119  17366.612044    140.604995
PG05   5907.976978  24429.528289  -8612.980887   -140.724442
PG06  -8068.135568  12182.095961  22241.780524    558.944468
PG07 -22598.074024  -3078.881948 -13530.747263     81.748963
PG08 -10750.390122 -11399.769107 -21558.713919   -139.630571
PG09 -23934.040108   4567.226476  10543.993193    -73.620344
PG10  10970.868695 -18619.027578 -15039.116264    -51.290929
PG11   5766.765761  19077.231791  17592.202107   -343.973812
PG12   9959.025132  17389.897819  17192.375858   -418.754668
PG13   1001.731778  15429.256474 -21764.091200    566.244370
PG14 -13372.976958  15418.857568 -16884.811684    169.249835
PG15  12904.954151  10220.180379 -21354.407515     72.519650
PG16    117.302151 -25914.447731  -4885.088211   -461.527340
PG17 -21965.880612  14013.405602   5874.283160    723.303587
PG18  21163.117295    980.747095 -16126.231550   -399.806335
PG19 -16956.366601  15733.383293  12538.929955    364.431686
PG20    957.385399  26457.111138   3201.270464    414.593570
PG21 -18835.603936 -16901.861853  -8899.925121    149.884255
PG22 -10558.597978  21831.898992 -10679.331685    131.957800
PG23  14588.606225  -5980.514236 -21340.993154     61.430528
PG24  21106.816360  15651.078286  -5568.256849   -304.545349
PG25  15135.088747   2651.602691  21363.268022    464.954047
PG26   4588.610846 -24991.002232   6970.071923    230.882266
PG27   2295.641482 -17055.354745 -20368.964382    -30.712212
PG28   9881.170040 -11713.029905  21673.054714     -3.281254
PG29  24268.218752  -2460.229188  10590.327443   -608.613861
PG30 -16830.670238   6219.822100 -19540.127903   -492.309506
PG31    -74.375998 -17134.146220  19997.452900   -222.612090
PG32  18532.827431 -16765.841235   8863.222032   -549.304607
PJ02 -22678.315688  29685.832016 -14875.823904     -3.238328
PJ03 -28777.960828  22438.975695  26155.173088     -1.806093
PJ04 -30650.935296  28849.134071   9976.976917     70.503043
PR01   9182.821908 -20728.676340  11696.615778     64.519352
PR02  -4375.843315 -11160.738070  22545.009427    -22.482789
PR03 -15645.141776   4289.132809  19747.446511     84.246162
PR04 -18056.239722  16925.490304   6236.866676    200.705746
PR05 -10849.892958  20475.771810 -10687.750989    118.154203
PR07  15924.435680  -4978.890936 -19239.495271     63.508355
PR08  17888.775350 -17148.906883  -5918.882406    -72.347628
PR09  11951.470758  21692.226160   5950.805574    139.414164
PR11   8380.436248  -8185.410391  22674.874253   -147.024456
PR12  -2506.757278 -22524.788870  11723.838508     30.712860
PR13 -10903.258740 -22731.285505  -3892.853011    -38.670452
PR14 -13632.827425  -8747.567515 -19694.829620     25.164212
PR15  -7907.109636   9465.671453 -22301.762746     86.619963
PR16   2578.154185  22352.608710 -11966.245280     18.193915
PR17 -25113.159480  -4313.528119    240.717374     13.076072
PR18 -19782.564864   3511.179397  15754.469210     99.295025
PR19  -6100.081926   9141.636761  23015.701174   -245.308995
PR20  15624.056658  11076.347248  16837.743701    -99.171045
PR21  25174.063145   4027.351907  -1302.779249    -34.115566
PR22  19250.341664  -3632.301744 -16308.378805    121.572093
PR24 -16489.904552 -10712.378872 -16218.024659    -22.369953
PR25  24932.364155   5455.228632   -176.070936     40.229305
EOF
